METEOR-M2 2             
1 44387U 19038A   23024.17623322  .00000133  00000+0  77694-4 0  9997
2 44387  98.7545 348.5291 0001777  34.1665 325.9625 14.23744054184813
